[
    {
        "name": "KEM Hospital",
        "type": "Hospital",
        "category": "Government",
        "state": "Maharashtra",
        "district": "Pune",
        "address": "489, Rasta Peth, Pune",
        "pincode": "411011",
        "contact_number": "020-66037300"
    },
    {
        "name": "Deenanath Mangeshkar Hospital",
        "type": "Hospital",
        "category": "Private",
        "state": "Maharashtra",
        "district": "Pune",
        "address": "Erandwane, Pune",
        "pincode": "411004",
        "contact_number": "020-40151000"
    },
    {
        "name": "Sancheti Hospital",
        "type": "Hospital",
        "category": "Private",
        "state": "Maharashtra",
        "district": "Pune",
        "address": "Shivaji Nagar, Pune",
        "pincode": "411005",
        "contact_number": "020-25537301"
    },
    {
        "name": "Lilavati Hospital",
        "type": "Hospital",
        "category": "Private",
        "state": "Maharashtra",
        "district": "Mumbai",
        "address": "Bandra Reclamation, Mumbai",
        "pincode": "400050",
        "contact_number": "022-26568000"
    },
    {
        "name": "Tata Memorial Hospital",
        "type": "Hospital",
        "category": "Government",
        "state": "Maharashtra",
        "district": "Mumbai",
        "address": "Dr. Ernest Borges Road, Parel, Mumbai",
        "pincode": "400012",
        "contact_number": "022-24177000"
    },
    {
        "name": "Nanavati Max Super Speciality Hospital",
        "type": "Hospital",
        "category": "Private",
        "state": "Maharashtra",
        "district": "Mumbai",
        "address": "Vile Parle West, Mumbai",
        "pincode": "400056",
        "contact_number": "022-26267500"
    },
    {
        "name": "Wockhardt Hospital",
        "type": "Hospital",
        "category": "Private",
        "state": "Maharashtra",
        "district": "Nashik",
        "address": "Mumbai Naka, Nashik",
        "pincode": "422002",
        "contact_number": "0253-6624444"
    },
    {
        "name": "Suyash Hospital",
        "type": "Hospital",
        "category": "Private",
        "state": "Maharashtra",
        "district": "Nashik",
        "address": "Gangapur Road, Nashik",
        "pincode": "422005",
        "contact_number": "0253-2310000"
    },
    {
        "name": "Nashik Civil Hospital",
        "type": "Hospital",
        "category": "Government",
        "state": "Maharashtra",
        "district": "Nashik",
        "address": "Trimbak Road, Nashik",
        "pincode": "422002",
        "contact_number": "0253-2573959"
    }
]